SL-3 R/B                
1 13403U 82079B   26038.14730794  .00007084  00000+0  28608-3 0  9996
2 13403  81.1441 229.1309 0024110 269.9487  89.8983 15.24353781373042
SL-14 R/B               
1 13553U 82092B   26037.89544965  .00000787  00000+0  85634-4 0  9997
2 13553  82.5701 170.1931 0021431  46.5174  74.8243 14.86631802324356
SL-3 R/B                
1 13819U 83010B   26038.07750344  .00017750  00000+0  36985-3 0  9996
2 13819  81.1023  39.7479 0017844 148.4993 211.7323 15.45275230353217
SL-3 R/B                
1 14208U 83075B   26038.10840867  .00013695  00000+0  37017-3 0  9995
2 14208  97.6134  41.5518 0021338 344.7392  15.3206 15.37625429325450
COSMOS 1536             
1 14699U 84013A   26037.98374818  .00007815  00000+0  32599-3 0  9992
2 14699  82.5471 138.3565 0015029  35.3976 324.8255 15.23416588267949
SL-14 R/B               
1 14820U 84027B   26038.12163892  .00000593  00000+0  64904-4 0  9990
2 14820  82.5401 273.6882 0019499  75.9170 284.4212 14.85946634243095
SL-8 R/B                
1 15483U 85006B   26038.19142338  .00000351  00000+0  12498-3 0  9995
2 15483  74.0473 317.2671 0019556 240.9197 229.2515 14.37768033149645
SL-12 R/B(2)            
1 15772U 85042D   26037.75114253  .00000154  00000+0  90520-4 0  9996
2 15772  71.1086 153.0916 0035055 177.6024 290.5428 14.21973416109993
SL-14 R/B               
1 15945U 85069B   26038.11567080  .00000683  00000+0  74504-4 0  9999
2 15945  82.5240  53.6891 0017349 296.0393  63.9037 14.86397080168295
SL-16 R/B               
1 16182U 85097B   26037.92734727  .00000002  00000+0  24995-4 0  9990
2 16182  71.0015 205.3130 0009540 295.7746 178.2537 14.16596309 82878
SL-14 R/B               
1 16496U 86006B   26038.16806524  .00001001  00000+0  10365-3 0  9996
2 16496  82.5270 288.4650 0077068  15.0297 345.3183 14.86773364144675
COSMOS 1743             
1 16719U 86034A   26038.18666772  .00041116  00000+0  58097-3 0  9991
2 16719  82.5329 105.7867 0005162  56.6888 303.4861 15.56352421175501
