CCSDS_OMM_VERS = 2.0
CREATION_DATE  = 
ORIGINATOR     = 

OBJECT_NAME    = SL-3 R/B
OBJECT_ID      = 1982-079B
CENTER_NAME    = EARTH
REF_FRAME      = TEME
TIME_SYSTEM    = UTC
MEAN_ELEMENT_THEORY = SGP/SGP4

EPOCH          = 2026-02-07T03:32:07.406016
MEAN_MOTION    = 15.24353781
ECCENTRICITY   = .002411
INCLINATION    = 81.1441
RA_OF_ASC_NODE = 229.1309
ARG_OF_PERICENTER = 269.9487
MEAN_ANOMALY   = 89.8983

EPHEMERIS_TYPE = 0
CLASSIFICATION_TYPE = U
NORAD_CAT_ID   = 13403
ELEMENT_SET_NO = 999
REV_AT_EPOCH   = 37304
BSTAR          = .28608E-3
MEAN_MOTION_DOT = .7084E-4
MEAN_MOTION_DDOT = 0

CCSDS_OMM_VERS = 2.0
CREATION_DATE  = 
ORIGINATOR     = 

OBJECT_NAME    = SL-14 R/B
OBJECT_ID      = 1982-092B
CENTER_NAME    = EARTH
REF_FRAME      = TEME
TIME_SYSTEM    = UTC
MEAN_ELEMENT_THEORY = SGP/SGP4

EPOCH          = 2026-02-06T21:29:26.849760
MEAN_MOTION    = 14.86631802
ECCENTRICITY   = .0021431
INCLINATION    = 82.5701
RA_OF_ASC_NODE = 170.1931
ARG_OF_PERICENTER = 46.5174
MEAN_ANOMALY   = 74.8243

EPHEMERIS_TYPE = 0
CLASSIFICATION_TYPE = U
NORAD_CAT_ID   = 13553
ELEMENT_SET_NO = 999
REV_AT_EPOCH   = 32435
BSTAR          = .85634E-4
MEAN_MOTION_DOT = .787E-5
MEAN_MOTION_DDOT = 0

CCSDS_OMM_VERS = 2.0
CREATION_DATE  = 
ORIGINATOR     = 

OBJECT_NAME    = SL-3 R/B
OBJECT_ID      = 1983-010B
CENTER_NAME    = EARTH
REF_FRAME      = TEME
TIME_SYSTEM    = UTC
MEAN_ELEMENT_THEORY = SGP/SGP4

EPOCH          = 2026-02-07T01:51:36.297216
MEAN_MOTION    = 15.45275230
ECCENTRICITY   = .0017844
INCLINATION    = 81.1023
RA_OF_ASC_NODE = 39.7479
ARG_OF_PERICENTER = 148.4993
MEAN_ANOMALY   = 211.7323

EPHEMERIS_TYPE = 0
CLASSIFICATION_TYPE = U
NORAD_CAT_ID   = 13819
ELEMENT_SET_NO = 999
REV_AT_EPOCH   = 35321
BSTAR          = .36985E-3
MEAN_MOTION_DOT = .1775E-3
MEAN_MOTION_DDOT = 0

CCSDS_OMM_VERS = 2.0
CREATION_DATE  = 
ORIGINATOR     = 

OBJECT_NAME    = SL-3 R/B
OBJECT_ID      = 1983-075B
CENTER_NAME    = EARTH
REF_FRAME      = TEME
TIME_SYSTEM    = UTC
MEAN_ELEMENT_THEORY = SGP/SGP4

EPOCH          = 2026-02-07T02:36:06.509088
MEAN_MOTION    = 15.37625429
ECCENTRICITY   = .0021338
INCLINATION    = 97.6134
RA_OF_ASC_NODE = 41.5518
ARG_OF_PERICENTER = 344.7392
MEAN_ANOMALY   = 15.3206

EPHEMERIS_TYPE = 0
CLASSIFICATION_TYPE = U
NORAD_CAT_ID   = 14208
ELEMENT_SET_NO = 999
REV_AT_EPOCH   = 32545
BSTAR          = .37017E-3
MEAN_MOTION_DOT = .13695E-3
MEAN_MOTION_DDOT = 0

CCSDS_OMM_VERS = 2.0
CREATION_DATE  = 
ORIGINATOR     = 

OBJECT_NAME    = COSMOS 1536
OBJECT_ID      = 1984-013A
CENTER_NAME    = EARTH
REF_FRAME      = TEME
TIME_SYSTEM    = UTC
MEAN_ELEMENT_THEORY = SGP/SGP4

EPOCH          = 2026-02-06T23:36:35.842752
MEAN_MOTION    = 15.23416588
ECCENTRICITY   = .0015029
INCLINATION    = 82.5471
RA_OF_ASC_NODE = 138.3565
ARG_OF_PERICENTER = 35.3976
MEAN_ANOMALY   = 324.8255

EPHEMERIS_TYPE = 0
CLASSIFICATION_TYPE = U
NORAD_CAT_ID   = 14699
ELEMENT_SET_NO = 999
REV_AT_EPOCH   = 26794
BSTAR          = .32599E-3
MEAN_MOTION_DOT = .7815E-4
MEAN_MOTION_DDOT = 0

CCSDS_OMM_VERS = 2.0
CREATION_DATE  = 
ORIGINATOR     = 

OBJECT_NAME    = SL-14 R/B
OBJECT_ID      = 1984-027B
CENTER_NAME    = EARTH
REF_FRAME      = TEME
TIME_SYSTEM    = UTC
MEAN_ELEMENT_THEORY = SGP/SGP4

EPOCH          = 2026-02-07T02:55:09.602688
MEAN_MOTION    = 14.85946634
ECCENTRICITY   = .0019499
INCLINATION    = 82.5401
RA_OF_ASC_NODE = 273.6882
ARG_OF_PERICENTER = 75.9170
MEAN_ANOMALY   = 284.4212

EPHEMERIS_TYPE = 0
CLASSIFICATION_TYPE = U
NORAD_CAT_ID   = 14820
ELEMENT_SET_NO = 999
REV_AT_EPOCH   = 24309
BSTAR          = .64904E-4
MEAN_MOTION_DOT = .593E-5
MEAN_MOTION_DDOT = 0

CCSDS_OMM_VERS = 2.0
CREATION_DATE  = 
ORIGINATOR     = 

OBJECT_NAME    = SL-8 R/B
OBJECT_ID      = 1985-006B
CENTER_NAME    = EARTH
REF_FRAME      = TEME
TIME_SYSTEM    = UTC
MEAN_ELEMENT_THEORY = SGP/SGP4

EPOCH          = 2026-02-07T04:35:38.980032
MEAN_MOTION    = 14.37768033
ECCENTRICITY   = .0019556
INCLINATION    = 74.0473
RA_OF_ASC_NODE = 317.2671
ARG_OF_PERICENTER = 240.9197
MEAN_ANOMALY   = 229.2515

EPHEMERIS_TYPE = 0
CLASSIFICATION_TYPE = U
NORAD_CAT_ID   = 15483
ELEMENT_SET_NO = 999
REV_AT_EPOCH   = 14964
BSTAR          = .12498E-3
MEAN_MOTION_DOT = .351E-5
MEAN_MOTION_DDOT = 0

CCSDS_OMM_VERS = 2.0
CREATION_DATE  = 
ORIGINATOR     = 

OBJECT_NAME    = SL-12 R/B(2)
OBJECT_ID      = 1985-042D
CENTER_NAME    = EARTH
REF_FRAME      = TEME
TIME_SYSTEM    = UTC
MEAN_ELEMENT_THEORY = SGP/SGP4

EPOCH          = 2026-02-06T18:01:38.714592
MEAN_MOTION    = 14.21973416
ECCENTRICITY   = .00350556
INCLINATION    = 71.1086
RA_OF_ASC_NODE = 153.0916
ARG_OF_PERICENTER = 177.6024
MEAN_ANOMALY   = 290.5428

EPHEMERIS_TYPE = 0
CLASSIFICATION_TYPE = U
NORAD_CAT_ID   = 15772
ELEMENT_SET_NO = 999
REV_AT_EPOCH   = 10999
BSTAR          = .90520289E-4
MEAN_MOTION_DOT = .154E-5
MEAN_MOTION_DDOT = 0

CCSDS_OMM_VERS = 2.0
CREATION_DATE  = 
ORIGINATOR     = 

OBJECT_NAME    = SL-14 R/B
OBJECT_ID      = 1985-069B
CENTER_NAME    = EARTH
REF_FRAME      = TEME
TIME_SYSTEM    = UTC
MEAN_ELEMENT_THEORY = SGP/SGP4

EPOCH          = 2026-02-07T02:46:33.957120
MEAN_MOTION    = 14.86397080
ECCENTRICITY   = .0017349
INCLINATION    = 82.5240
RA_OF_ASC_NODE = 53.6891
ARG_OF_PERICENTER = 296.0393
MEAN_ANOMALY   = 63.9037

EPHEMERIS_TYPE = 0
CLASSIFICATION_TYPE = U
NORAD_CAT_ID   = 15945
ELEMENT_SET_NO = 999
REV_AT_EPOCH   = 16829
BSTAR          = .74504E-4
MEAN_MOTION_DOT = .683E-5
MEAN_MOTION_DDOT = 0

CCSDS_OMM_VERS = 2.0
CREATION_DATE  = 
ORIGINATOR     = 

OBJECT_NAME    = SL-16 R/B
OBJECT_ID      = 1985-097B
CENTER_NAME    = EARTH
REF_FRAME      = TEME
TIME_SYSTEM    = UTC
MEAN_ELEMENT_THEORY = SGP/SGP4

EPOCH          = 2026-02-06T22:15:22.804128
MEAN_MOTION    = 14.16596309
ECCENTRICITY   = .000954
INCLINATION    = 71.0015
RA_OF_ASC_NODE = 205.3130
ARG_OF_PERICENTER = 295.7746
MEAN_ANOMALY   = 178.2537

EPHEMERIS_TYPE = 0
CLASSIFICATION_TYPE = U
NORAD_CAT_ID   = 16182
ELEMENT_SET_NO = 999
REV_AT_EPOCH   = 8287
BSTAR          = .24995E-4
MEAN_MOTION_DOT = .2E-7
MEAN_MOTION_DDOT = 0

CCSDS_OMM_VERS = 2.0
CREATION_DATE  = 
ORIGINATOR     = 

OBJECT_NAME    = SL-14 R/B
OBJECT_ID      = 1986-006B
CENTER_NAME    = EARTH
REF_FRAME      = TEME
TIME_SYSTEM    = UTC
MEAN_ELEMENT_THEORY = SGP/SGP4

EPOCH          = 2026-02-07T04:02:00.836736
MEAN_MOTION    = 14.86773364
ECCENTRICITY   = .0077068
INCLINATION    = 82.5270
RA_OF_ASC_NODE = 288.4650
ARG_OF_PERICENTER = 15.0297
MEAN_ANOMALY   = 345.3183

EPHEMERIS_TYPE = 0
CLASSIFICATION_TYPE = U
NORAD_CAT_ID   = 16496
ELEMENT_SET_NO = 999
REV_AT_EPOCH   = 14467
BSTAR          = .10365E-3
MEAN_MOTION_DOT = .1001E-4
MEAN_MOTION_DDOT = 0

CCSDS_OMM_VERS = 2.0
CREATION_DATE  = 
ORIGINATOR     = 

OBJECT_NAME    = COSMOS 1743
OBJECT_ID      = 1986-034A
CENTER_NAME    = EARTH
REF_FRAME      = TEME
TIME_SYSTEM    = UTC
MEAN_ELEMENT_THEORY = SGP/SGP4

EPOCH          = 2026-02-07T04:28:48.091008
MEAN_MOTION    = 15.56352421
ECCENTRICITY   = .0005162
INCLINATION    = 82.5329
RA_OF_ASC_NODE = 105.7867
ARG_OF_PERICENTER = 56.6888
MEAN_ANOMALY   = 303.4861

EPHEMERIS_TYPE = 0
CLASSIFICATION_TYPE = U
NORAD_CAT_ID   = 16719
ELEMENT_SET_NO = 999
REV_AT_EPOCH   = 17550
BSTAR          = .58097E-3
MEAN_MOTION_DOT = .41116E-3
MEAN_MOTION_DDOT = 0

